INTELSAT 4-F4           
1 05775U 72003A   26073.91464987 -.00000281  00000+0  00000+0 0  9992
2 05775   6.9666 295.1577 0002114  84.0941  69.9057  0.99831811136454
OPS 1570 (DSP 3)        
1 05851U 72010A   26073.92114990 -.00000213  00000+0  00000+0 0  9997
2 05851   0.1801 117.1592 0010174 170.6502 196.7826  0.99783562 24993
INTELSAT 4-F5           
1 06052U 72041A   26073.67708063  .00000067  00000+0  00000+0 0  9993
2 06052   5.9641 287.7124 0003115 322.3742  37.4689  1.00096480 45716
OPS 6063                
1 06380U 73013A   26073.92313368 -.00000099  00000+0  00000+0 0  9991
2 06380   0.5837 249.6535 0012432 281.6156  49.6773  1.00274879 25479
ANIK A2 (TELESAT 2)     
1 06437U 73023A   26073.81723612 -.00000079  00000+0  00000+0 0  9998
2 06437   7.1499 296.6386 0011960  67.5134 278.0864  0.99806021 46207
OPS 6157 (DSP 4)        
1 06691U 73040A   26073.88526976 -.00000206  00000+0  00000+0 0  9992
2 06691   1.1014 231.6983 0008227  64.9809 353.6809  0.99830496 25007
WESTAR 1                
1 07250U 74022A   26073.59099554 -.00000328  00000+0  00000+0 0  9995
2 07250   7.3221 298.6989 0006694  35.0285 164.8071  0.99896816121388
MOLNIYA 1-S             
1 07392U 74060A   26073.94209161 -.00000280  00000+0  00000+0 0  9997
2 07392   1.6138 254.3731 0007591 282.5626  69.5424  1.00328929133225
WESTAR 2                
1 07466U 74075A   26073.84912960 -.00000233  00000+0  00000+0 0  9990
2 07466   7.4701 300.3984 0001519 244.1211 270.1786  0.99861317136715
INTELSAT 4-F8           
1 07544U 74093A   26073.79049677  .00000126  00000+0  00000+0 0  9997
2 07544   8.1691 305.1998 0001269 225.8565 326.8186  0.99784228124261
SKYNET 2B               
1 07547U 74094A   26073.79405013  .00000034  00000+0  00000+0 0  9999
2 07547   3.8093 281.5389 0000434 169.5983  65.6837  1.00386588123815
SYMPHONIE 1             
1 07578U 74101A   26073.95369549  .00000119  00000+0  00000+0 0  9997
2 07578   4.8171 278.2028 0004349  31.7129 235.7473  0.99953149116257
ANIK A3 (TELESAT 3)     
1 07790U 75038A   26073.84862527  .00000030  00000+0  00000+0 0  9997
2 07790   7.9012 303.4280 0002615  25.3845 215.4338  1.00032165129012
SYMPHONIE 2             
1 08132U 75077A   26073.75210328  .00000121  00000+0  00000+0 0  9998
2 08132   4.2818 275.8028 0007003  45.5044 328.6568  0.99972691141515
INTELSAT 4A-F1          
1 08330U 75091A   26073.80820141 -.00000147  00000+0  00000+0 0  9999
2 08330   8.0697 304.9414 0004252 280.6690 326.3247  0.99918206120526
COSMOS 775              
1 08357U 75097A   26073.79327012  .00000094  00000+0  00000+0 0  9991
2 08357   2.6027 262.9735 0010039 176.0374  73.6358  1.00201598130818
GOES 1 (SMS-C)          
1 08366U 75100A   26073.68692965  .00000016  00000+0  00000+0 0  9990
2 08366   4.8482 278.6286 0005251   1.3510  17.7194  1.00239625184126
