[{"OBJECT_NAME":"INTELSAT 4-F4","OBJECT_ID":"1972-003A","EPOCH":"2026-03-14T21:57:05.748768","MEAN_MOTION":0.99831811,"ECCENTRICITY":0.00021141,"INCLINATION":6.9666,"RA_OF_ASC_NODE":295.1577,"ARG_OF_PERICENTER":84.0941,"MEAN_ANOMALY":69.9057,"EPHEMERIS_TYPE":0,"CLASSIFICATION_TYPE":"U","NORAD_CAT_ID":5775,"ELEMENT_SET_NO":999,"REV_AT_EPOCH":13645,"BSTAR":0,"MEAN_MOTION_DOT":-2.81e-6,"MEAN_MOTION_DDOT":0},{"OBJECT_NAME":"OPS 1570 (DSP 3)","OBJECT_ID":"1972-010A","EPOCH":"2026-03-14T22:06:27.351360","MEAN_MOTION":0.99783562,"ECCENTRICITY":0.00101749,"INCLINATION":0.1801,"RA_OF_ASC_NODE":117.1592,"ARG_OF_PERICENTER":170.6502,"MEAN_ANOMALY":196.7826,"EPHEMERIS_TYPE":0,"CLASSIFICATION_TYPE":"U","NORAD_CAT_ID":5851,"ELEMENT_SET_NO":999,"REV_AT_EPOCH":2499,"BSTAR":0,"MEAN_MOTION_DOT":-2.13e-6,"MEAN_MOTION_DDOT":0},{"OBJECT_NAME":"INTELSAT 4-F5","OBJECT_ID":"1972-041A","EPOCH":"2026-03-14T16:14:59.766432","MEAN_MOTION":1.0009648,"ECCENTRICITY":0.00031158,"INCLINATION":5.9641,"RA_OF_ASC_NODE":287.7124,"ARG_OF_PERICENTER":322.3742,"MEAN_ANOMALY":37.4689,"EPHEMERIS_TYPE":0,"CLASSIFICATION_TYPE":"U","NORAD_CAT_ID":6052,"ELEMENT_SET_NO":999,"REV_AT_EPOCH":4571,"BSTAR":0,"MEAN_MOTION_DOT":6.7e-7,"MEAN_MOTION_DDOT":0},{"OBJECT_NAME":"OPS 6063","OBJECT_ID":"1973-013A","EPOCH":"2026-03-14T22:09:18.749952","MEAN_MOTION":1.00274879,"ECCENTRICITY":0.00124326,"INCLINATION":0.5837,"RA_OF_ASC_NODE":249.6535,"ARG_OF_PERICENTER":281.6156,"MEAN_ANOMALY":49.6773,"EPHEMERIS_TYPE":0,"CLASSIFICATION_TYPE":"U","NORAD_CAT_ID":6380,"ELEMENT_SET_NO":999,"REV_AT_EPOCH":2547,"BSTAR":0,"MEAN_MOTION_DOT":-9.9e-7,"MEAN_MOTION_DDOT":0},{"OBJECT_NAME":"ANIK A2 (TELESAT 2)","OBJECT_ID":"1973-023A","EPOCH":"2026-03-14T19:36:49.200768","MEAN_MOTION":0.99806021,"ECCENTRICITY":0.00119605,"INCLINATION":7.1499,"RA_OF_ASC_NODE":296.6386,"ARG_OF_PERICENTER":67.5134,"MEAN_ANOMALY":278.0864,"EPHEMERIS_TYPE":0,"CLASSIFICATION_TYPE":"U","NORAD_CAT_ID":6437,"ELEMENT_SET_NO":999,"REV_AT_EPOCH":4620,"BSTAR":0,"MEAN_MOTION_DOT":-7.9e-7,"MEAN_MOTION_DDOT":0},{"OBJECT_NAME":"OPS 6157 (DSP 4)","OBJECT_ID":"1973-040A","EPOCH":"2026-03-14T21:14:47.307264","MEAN_MOTION":0.99830496,"ECCENTRICITY":0.00082274,"INCLINATION":1.1014,"RA_OF_ASC_NODE":231.6983,"ARG_OF_PERICENTER":64.9809,"MEAN_ANOMALY":353.6809,"EPHEMERIS_TYPE":0,"CLASSIFICATION_TYPE":"U","NORAD_CAT_ID":6691,"ELEMENT_SET_NO":999,"REV_AT_EPOCH":2500,"BSTAR":0,"MEAN_MOTION_DOT":-2.06e-6,"MEAN_MOTION_DDOT":0},{"OBJECT_NAME":"WESTAR 1","OBJECT_ID":"1974-022A","EPOCH":"2026-03-14T14:11:02.014656","MEAN_MOTION":0.99896816,"ECCENTRICITY":0.00066943,"INCLINATION":7.3221,"RA_OF_ASC_NODE":298.6989,"ARG_OF_PERICENTER":35.0285,"MEAN_ANOMALY":164.8071,"EPHEMERIS_TYPE":0,"CLASSIFICATION_TYPE":"U","NORAD_CAT_ID":7250,"ELEMENT_SET_NO":999,"REV_AT_EPOCH":12138,"BSTAR":0,"MEAN_MOTION_DOT":-3.28e-6,"MEAN_MOTION_DDOT":0},{"OBJECT_NAME":"MOLNIYA 1-S","OBJECT_ID":"1974-060A","EPOCH":"2026-03-14T22:36:36.715104","MEAN_MOTION":1.00328929,"ECCENTRICITY":0.00075911,"INCLINATION":1.6138,"RA_OF_ASC_NODE":254.3731,"ARG_OF_PERICENTER":282.5626,"MEAN_ANOMALY":69.5424,"EPHEMERIS_TYPE":0,"CLASSIFICATION_TYPE":"U","NORAD_CAT_ID":7392,"ELEMENT_SET_NO":999,"REV_AT_EPOCH":13322,"BSTAR":0,"MEAN_MOTION_DOT":-2.8e-6,"MEAN_MOTION_DDOT":0},{"OBJECT_NAME":"WESTAR 2","OBJECT_ID":"1974-075A","EPOCH":"2026-03-14T20:22:44.797440","MEAN_MOTION":0.99861317,"ECCENTRICITY":0.00015199,"INCLINATION":7.4701,"RA_OF_ASC_NODE":300.3984,"ARG_OF_PERICENTER":244.1211,"MEAN_ANOMALY":270.1786,"EPHEMERIS_TYPE":0,"CLASSIFICATION_TYPE":"U","NORAD_CAT_ID":7466,"ELEMENT_SET_NO":999,"REV_AT_EPOCH":13671,"BSTAR":0,"MEAN_MOTION_DOT":-2.33e-6,"MEAN_MOTION_DDOT":0},{"OBJECT_NAME":"INTELSAT 4-F8","OBJECT_ID":"1974-093A","EPOCH":"2026-03-14T18:58:18.920928","MEAN_MOTION":0.99784228,"ECCENTRICITY":0.00012695,"INCLINATION":8.1691,"RA_OF_ASC_NODE":305.1998,"ARG_OF_PERICENTER":225.8565,"MEAN_ANOMALY":326.8186,"EPHEMERIS_TYPE":0,"CLASSIFICATION_TYPE":"U","NORAD_CAT_ID":7544,"ELEMENT_SET_NO":999,"REV_AT_EPOCH":12426,"BSTAR":0,"MEAN_MOTION_DOT":1.26e-6,"MEAN_MOTION_DDOT":0},{"OBJECT_NAME":"SKYNET 2B","OBJECT_ID":"1974-094A","EPOCH":"2026-03-14T19:03:25.931232","MEAN_MOTION":1.00386588,"ECCENTRICITY":4.347e-5,"INCLINATION":3.8093,"RA_OF_ASC_NODE":281.5389,"ARG_OF_PERICENTER":169.5983,"MEAN_ANOMALY":65.6837,"EPHEMERIS_TYPE":0,"CLASSIFICATION_TYPE":"U","NORAD_CAT_ID":7547,"ELEMENT_SET_NO":999,"REV_AT_EPOCH":12381,"BSTAR":0,"MEAN_MOTION_DOT":3.4e-7,"MEAN_MOTION_DDOT":0},{"OBJECT_NAME":"SYMPHONIE 1","OBJECT_ID":"1974-101A","EPOCH":"2026-03-14T22:53:19.290336","MEAN_MOTION":0.99953149,"ECCENTRICITY":0.00043495,"INCLINATION":4.8171,"RA_OF_ASC_NODE":278.2028,"ARG_OF_PERICENTER":31.7129,"MEAN_ANOMALY":235.7473,"EPHEMERIS_TYPE":0,"CLASSIFICATION_TYPE":"U","NORAD_CAT_ID":7578,"ELEMENT_SET_NO":999,"REV_AT_EPOCH":11625,"BSTAR":0,"MEAN_MOTION_DOT":1.19e-6,"MEAN_MOTION_DDOT":0},{"OBJECT_NAME":"ANIK A3 (TELESAT 3)","OBJECT_ID":"1975-038A","EPOCH":"2026-03-14T20:22:01.223328","MEAN_MOTION":1.00032165,"ECCENTRICITY":0.00026152,"INCLINATION":7.9012,"RA_OF_ASC_NODE":303.428,"ARG_OF_PERICENTER":25.3845,"MEAN_ANOMALY":215.4338,"EPHEMERIS_TYPE":0,"CLASSIFICATION_TYPE":"U","NORAD_CAT_ID":7790,"ELEMENT_SET_NO":999,"REV_AT_EPOCH":12901,"BSTAR":0,"MEAN_MOTION_DOT":3.0e-7,"MEAN_MOTION_DDOT":0},{"OBJECT_NAME":"SYMPHONIE 2","OBJECT_ID":"1975-077A","EPOCH":"2026-03-14T18:03:01.723392","MEAN_MOTION":0.99972691,"ECCENTRICITY":0.00070035,"INCLINATION":4.2818,"RA_OF_ASC_NODE":275.8028,"ARG_OF_PERICENTER":45.5044,"MEAN_ANOMALY":328.6568,"EPHEMERIS_TYPE":0,"CLASSIFICATION_TYPE":"U","NORAD_CAT_ID":8132,"ELEMENT_SET_NO":999,"REV_AT_EPOCH":14151,"BSTAR":0,"MEAN_MOTION_DOT":1.21e-6,"MEAN_MOTION_DDOT":0},{"OBJECT_NAME":"INTELSAT 4A-F1","OBJECT_ID":"1975-091A","EPOCH":"2026-03-14T19:23:48.601824","MEAN_MOTION":0.99918206,"ECCENTRICITY":0.00042523,"INCLINATION":8.0697,"RA_OF_ASC_NODE":304.9414,"ARG_OF_PERICENTER":280.669,"MEAN_ANOMALY":326.3247,"EPHEMERIS_TYPE":0,"CLASSIFICATION_TYPE":"U","NORAD_CAT_ID":8330,"ELEMENT_SET_NO":999,"REV_AT_EPOCH":12052,"BSTAR":0,"MEAN_MOTION_DOT":-1.47e-6,"MEAN_MOTION_DDOT":0},{"OBJECT_NAME":"COSMOS 775","OBJECT_ID":"1975-097A","EPOCH":"2026-03-14T19:02:18.538368","MEAN_MOTION":1.00201598,"ECCENTRICITY":0.0010039,"INCLINATION":2.6027,"RA_OF_ASC_NODE":262.9735,"ARG_OF_PERICENTER":176.0374,"MEAN_ANOMALY":73.6358,"EPHEMERIS_TYPE":0,"CLASSIFICATION_TYPE":"U","NORAD_CAT_ID":8357,"ELEMENT_SET_NO":999,"REV_AT_EPOCH":13081,"BSTAR":0,"MEAN_MOTION_DOT":9.4e-7,"MEAN_MOTION_DDOT":0},{"OBJECT_NAME":"GOES 1 (SMS-C)","OBJECT_ID":"1975-100A","EPOCH":"2026-03-14T16:29:10.721760","MEAN_MOTION":1.00239625,"ECCENTRICITY":0.00052516,"INCLINATION":4.8482,"RA_OF_ASC_NODE":278.6286,"ARG_OF_PERICENTER":1.351,"MEAN_ANOMALY":17.7194,"EPHEMERIS_TYPE":0,"CLASSIFICATION_TYPE":"U","NORAD_CAT_ID":8366,"ELEMENT_SET_NO":999,"REV_AT_EPOCH":18412,"BSTAR":0,"MEAN_MOTION_DOT":1.6e-7,"MEAN_MOTION_DDOT":0}]
